RS-44 & BREEZE-KM R/B   
1 44909U 19096E   24104.61214624  .00000005  00000+0 -23338-4 0  9996
2 44909  82.5206 147.6863 0217125 201.8975 157.2740 12.79728545200712
BY70-2                  
1 45857U 20042B   24105.53726550  .00086697  00000+0  46308-2 0  9990
2 45857  97.9081 195.7165 0004004  99.6983 260.4701 15.14721299204862
SALSAT                  
1 46495U 20068K   24105.43612761  .00008106  00000+0  47624-3 0  9996
2 46495  97.8111  63.2053 0014643 164.0963 196.0729 15.11886491194678
RADFXSAT-2 (AO-109)     
1 47311U 21002C   24105.14039389  .00767131  28469-3  14167-2 0  9998
2 47311  60.6590 308.4722 0005174 111.9632 248.2042 16.00814938181260
UVSQ-SAT                
1 47438U 21006AB  24104.69933319  .00040748  00000+0  10030-2 0  9997
2 47438  97.3341 164.6360 0008119  96.3847 263.8324 15.40458624178785
LEDSAT                  
1 49069U 21073D   24105.15075943  .00017117  00000+0  74646-3 0  9993
2 49069  97.4413 176.8194 0021586 147.4938 212.7632 15.22022481146700
XW-3 (CAS-9)            
1 50466U 21131B   24105.52906496  .00000996  00000+0  33365-3 0  9998
2 50466  98.5274 190.9057 0003280 329.4277  30.6719 14.39479814120847
TEVEL-3                 
1 50988U 22002E   24105.50590674  .00088235  00000+0  15617-2 0  9991
2 50988  97.3849 179.0042 0005329 216.7751 143.3135 15.49973145125133
TEVEL-8                 
1 50989U 22002F   24105.47705644  .00083664  00000+0  14889-2 0  9994
2 50989  97.3867 179.0625 0005304 215.8592 144.2304 15.49835970125127
TEVEL-5                 
1 50998U 22002Q   24105.49221528  .00105452  00000+0  16762-2 0  9992
2 50998  97.3835 180.0168 0005985 210.4602 149.6304 15.52930412125203
TEVEL-6                 
1 50999U 22002R   24105.49509299  .00103843  00000+0  16569-2 0  9994
2 50999  97.3829 179.9970 0005882 210.5345 149.5566 15.52831232125205
TEVEL-1                 
1 51013U 22002AF  24105.46557808  .00081821  00000+0  14568-2 0  9996
2 51013  97.3842 178.8389 0005336 214.8899 145.2003 15.49829497125121
TEVEL-7                 
1 51062U 22002CG  24105.46883391  .00081241  00000+0  14409-2 0  9999
2 51062  97.3862 179.0283 0005392 214.4915 145.5987 15.49941293125123
TEVEL-4                 
1 51063U 22002CH  24105.49807750  .00088207  00000+0  15777-2 0  9996
2 51063  97.3863 178.9801 0005398 215.6391 144.4500 15.49673389125123
TEVEL-2                 
1 51069U 22002CP  24105.44016049  .00081589  00000+0  14442-2 0  9994
2 51069  97.3845 178.9043 0005358 215.4515 144.6380 15.49996704125126
GREENCUBE               
1 53106U 22080B   24099.70722617 -.00000003  00000+0  00000+0 0  9995
2 53106  70.1414 216.6532 0008047 121.1128 239.0321  6.42557348 40800
KUZBASS-300 (RS34S)     
1 53375U 22096F   24105.42552785  .00228432  00000+0  13905-2 0  9992
2 53375  97.3854  24.1380 0006664 114.8946 245.3013 15.76782921 94463
UTMN (RS23S)            
1 53376U 22096G   24105.40841182  .00322056  00000+0  14566-2 0  9994
2 53376  97.3841  25.0323 0006813 125.3927 234.7979 15.83111716 94525
MIET-AIS (RS28S)        
1 53377U 22096H   24105.51445431  .00153451  00000+0  13229-2 0  9990
2 53377  97.3907  23.3199 0005165 112.7265 247.4542 15.68776602 94414
KAI-1 (RS26S)           
1 53378U 22096J   24105.53411238  .00070221  00000+0  95600-3 0  9998
2 53378  97.3973  21.4253 0003748 115.5323 244.6321 15.57318481 94283
ISOI (RS19S)            
1 53381U 22096M   24105.48822870  .00156717  00000+0  12391-2 0  9994
2 53381  97.3923  24.1115 0005355 102.5825 257.6036 15.70866937 94464
CUBESX-HSE-2 (RS21S)    
1 53383U 22096P   24105.47026467  .00305730  00000+0  14576-2 0  9991
2 53383  97.3840  25.2809 0006502 111.4537 248.7426 15.82017992 94545
SIREN (RS30S)           
1 53384U 22096Q   24105.52553522  .00109047  00000+0  11566-2 0  9994
2 53384  97.3942  22.8828 0004582  86.8978 273.2805 15.63729794 94388
CAS-5A (FO-118)         
1 54684U 22167C   24105.48747152  .00027135  00000+0  10608-2 0  9999
2 54684  97.5973 249.0373 0009993   9.8004 350.3426 15.25784346 74579
STRATOSAT-TK 1 (RS52S)  
1 57167U 23091B   24105.52397167  .00014591  00000+0  90109-3 0  9994
2 57167  97.6185 158.8573 0014691 342.2368  17.8345 15.09899819 43947
UMKA 1 (RS40S)          
1 57172U 23091G   24105.46016488  .00005428  00000+0  37049-3 0  9990
2 57172  97.6188 158.1736 0016200 344.5689  15.5042 15.06512140 43898
CUBESX-HSE 3 (RS42S)    
1 57178U 23091N   24105.39885607  .00007874  00000+0  52181-3 0  9996
2 57178  97.6226 158.3941 0016534 338.5604  21.4929 15.07454368 43895
MONITOR-4 (RS57S)       
1 57182U 23091S   24105.43506927  .00008226  00000+0  55021-3 0  9999
2 57182  97.6204 158.3019 0017084 338.0486  22.0008 15.07090695 43890
MONITOR-2 (RS39S)       
1 57184U 23091U   24105.49762351  .00005848  00000+0  39635-3 0  9992
2 57184  97.6215 158.5448 0013508 332.5486  27.5026 15.06773137 43919
SVYATOBOR 1 (RS60S)     
1 57187U 23091X   24105.51147168  .00007598  00000+0  49783-3 0  9990
2 57187  97.6212 158.8388 0012819 329.9402  30.1088 15.07932816 43939
VIZARD-METEO (RS38S)    
1 57189U 23091Z   24105.45308993  .00008199  00000+0  52161-3 0  9992
2 57189  97.6207 159.0414 0011547 328.4100  31.6434 15.09006690 43940
NANOZOND 1 (RS49S)      
1 57190U 23091AA  24105.48131745  .00012699  00000+0  76604-3 0  9994
2 57190  97.6188 159.3662 0009942 334.1492  25.9240 15.10840240 43975
POLYTECH-UNIVERSE 3 (R*)
1 57191U 23091AB  24105.43240659  .00006029  00000+0  40884-3 0  9996
2 57191  97.6177 158.2006 0019318 349.1194  10.9612 15.06661982 43894
UTMN 2 (RS27S)          
1 57203U 23091AP  24105.49217659  .00009416  00000+0  60411-3 0  9991
2 57203  97.6211 158.9873 0012026 328.2503  31.7999 15.08645585 43945
ARCCUBE 1 (RS25S)       
1 57205U 23091AR  24105.49783583  .00016324  00000+0  96352-3 0  9996
2 57205  97.6158 159.4228 0010215 334.4454  25.6270 15.11566668 43985
KUZGTU 1 (RS47S)        
1 57217U 23091AV  24105.46878604  .00007792  00000+0  51775-3 0  9994
2 57217  97.6202 158.3618 0016512 339.7997  20.2575 15.07358745 43906
HADES-D (SO-121)        
1 58567U 23174CY  24105.20278484  .00038555  00000+0  16568-2 0  9998
2 58567  97.4581 181.0574 0014122 100.8648 259.4178 15.22471550 24026
